2023-030A               
1 55836U 23030A   23073.84246134 -.00000044  00000+0  00000+0 0  9999
2 55836  98.9979  82.1138 0004960 215.1761 144.9079 14.02944604   698
2023-030B               
1 55837U 23030B   23073.83959073 -.00000044  00000+0  00000+0 0  9992
2 55837  98.9994  82.1199 0001800 257.8081 102.2900 14.03773388   691
2023-030C               
1 55838U 23030C   23073.92057814 -.00000046  00000+0  00000+0 0  9997
2 55838  99.0059  82.4085 0088248  30.0116 330.6083 14.21252852   714
2023-030D               
1 55839U 23030D   23074.00339079 -.00000044  00000+0  00000+0 0  9992
2 55839  98.9980  82.2730 0005337 214.5082 238.7256 14.02945116   700
LUCH-5X (OLYMP-K 2)     
1 55841U 23031A   23073.36351461 -.00000107  00000+0  00000+0 0  9993
2 55841   0.2559 344.5129 0054302 197.3750 178.0810  1.01146214    27
BREEZE-M DEB [TANK]     
1 55843U 23031C   23072.99872808  .00001614  00000+0  36985-2 0  9993
2 55843  48.7283 167.1033 7232724   0.0957   0.0089  2.27414043    79
HORUS 2                 
1 55844U 23032A   23073.86303378  .00012577  00000+0  52924-3 0  9995
2 55844  97.4749 147.5632 0010364 248.1924 163.5908 15.23473668   265
CZ-2C R/B               
1 55845U 23032B   23073.93227955  .00079309  00000+0  40461-2 0  9998
2 55845  97.2622 147.6147 0100355 217.8977 141.5167 15.12064642   200
CZ-2C DEB               
1 55846U 23032C   23073.80002088  .00009440  00000+0  53016-3 0  9993
2 55846  97.6475 147.6951 0061326 230.1356 129.4458 15.11922987   254
CZ-2C DEB               
1 55847U 23032D   23073.73620066  .00078738  00000+0  41920-2 0  9994
2 55847  97.6530 147.3888 0111544 215.6335 143.7381 15.09628545   249
CZ-2C DEB               
1 55848U 23032E   23073.76175027  .00050046  00000+0  44734-2 0  9998
2 55848  97.2715 147.3904 0166306 162.3418 198.3720 14.85656753   244
CZ-2C DEB               
1 55849U 23032F   23073.76328579  .00045840  00000+0  41815-2 0  9994
2 55849  97.7013 147.3492 0172541 161.3740 199.3902 14.84219064   240
DRAGON CRS-27           
1 55860U 23033A   23074.10197272 -.00003582  11326-4  00000+0 0  9995
2 55860  51.6454  74.9922 0091462 229.9945 253.7407 16.01979243    17
